[
  {
    "OBJECT_NAME": "STARLINK-3500",
    "OBJECT_ID": "22016AC",
    "EPOCH": "2025-11-11T04:37:38.013312",
    "MEAN_MOTION": 15.08838153,
    "ECCENTRICITY": 0.0001547,
    "INCLINATION": 53.2147,
    "RA_OF_ASC_NODE": 131.0733,
    "ARG_OF_PERICENTER": 88.4418,
    "MEAN_ANOMALY": 271.6752,
    "EPHEMERIS_TYPE": 0,
    "CLASSIFICATION_TYPE": "U",
    "NORAD_CAT_ID": 51740,
    "ELEMENT_SET_NO": 999,
    "REV_AT_EPOCH": 20567,
    "BSTAR": 1.807e-05,
    "MEAN_MOTION_DOT": 0.0,
    "MEAN_MOTION_DDOT": 0.0,
    "TLE_LINE1": "1 51740U 22016AC  25315.19280108  .00000000  00000+0  18070-4 0  9992",
    "TLE_LINE2": "2 51740  53.2147 131.0733 0001547  88.4418 271.6752 15.08838153205671",
    "COMMENT": "Grouped by shell and plane from TLE"
  },
  {
    "OBJECT_NAME": "STARLINK-3520",
    "OBJECT_ID": "22016AD",
    "EPOCH": "2025-11-11T04:54:54.479808",
    "MEAN_MOTION": 15.08850382,
    "ECCENTRICITY": 0.0001211,
    "INCLINATION": 53.2148,
    "RA_OF_ASC_NODE": 131.0299,
    "ARG_OF_PERICENTER": 85.8176,
    "MEAN_ANOMALY": 274.2955,
    "EPHEMERIS_TYPE": 0,
    "CLASSIFICATION_TYPE": "U",
    "NORAD_CAT_ID": 51741,
    "ELEMENT_SET_NO": 999,
    "REV_AT_EPOCH": 20567,
    "BSTAR": 7.273300000000001e-05,
    "MEAN_MOTION_DOT": 8.7e-06,
    "MEAN_MOTION_DDOT": 0.0,
    "TLE_LINE1": "1 51741U 22016AD  25315.20479722  .00000870  00000+0  72733-4 0  9998",
    "TLE_LINE2": "2 51741  53.2148 131.0299 0001211  85.8176 274.2955 15.08850382205672",
    "COMMENT": "Grouped by shell and plane from TLE"
  },
  {
    "OBJECT_NAME": "STARLINK-3521",
    "OBJECT_ID": "22016AE",
    "EPOCH": "2025-11-10T22:37:19.645536",
    "MEAN_MOTION": 15.088321,
    "ECCENTRICITY": 0.0001369,
    "INCLINATION": 53.2144,
    "RA_OF_ASC_NODE": 132.3893,
    "ARG_OF_PERICENTER": 83.4445,
    "MEAN_ANOMALY": 276.6703,
    "EPHEMERIS_TYPE": 0,
    "CLASSIFICATION_TYPE": "U",
    "NORAD_CAT_ID": 51742,
    "ELEMENT_SET_NO": 999,
    "REV_AT_EPOCH": 20563,
    "BSTAR": 0.0001304,
    "MEAN_MOTION_DOT": 1.788e-05,
    "MEAN_MOTION_DDOT": 0.0,
    "TLE_LINE1": "1 51742U 22016AE  25314.94258849  .00001788  00000+0  13040-3 0  9998",
    "TLE_LINE2": "2 51742  53.2144 132.3893 0001369  83.4445 276.6703 15.08832100205631",
    "COMMENT": "Grouped by shell and plane from TLE"
  },
  {
    "OBJECT_NAME": "STARLINK-3452",
    "OBJECT_ID": "22016AG",
    "EPOCH": "2025-11-10T18:54:43.591392",
    "MEAN_MOTION": 15.08839062,
    "ECCENTRICITY": 0.0001422,
    "INCLINATION": 53.2144,
    "RA_OF_ASC_NODE": 132.9202,
    "ARG_OF_PERICENTER": 92.2941,
    "MEAN_ANOMALY": 267.8214,
    "EPHEMERIS_TYPE": 0,
    "CLASSIFICATION_TYPE": "U",
    "NORAD_CAT_ID": 51744,
    "ELEMENT_SET_NO": 999,
    "REV_AT_EPOCH": 20561,
    "BSTAR": 7.7257e-05,
    "MEAN_MOTION_DOT": 9.42e-06,
    "MEAN_MOTION_DDOT": 0.0,
    "TLE_LINE1": "1 51744U 22016AG  25314.78800453  .00000942  00000+0  77257-4 0  9998",
    "TLE_LINE2": "2 51744  53.2144 132.9202 0001422  92.2941 267.8214 15.08839062205613",
    "COMMENT": "Grouped by shell and plane from TLE"
  },
  {
    "OBJECT_NAME": "STARLINK-3449",
    "OBJECT_ID": "22016AH",
    "EPOCH": "2025-11-10T22:21:23.056704",
    "MEAN_MOTION": 15.08842327,
    "ECCENTRICITY": 0.0001422,
    "INCLINATION": 53.2162,
    "RA_OF_ASC_NODE": 132.2464,
    "ARG_OF_PERICENTER": 93.8764,
    "MEAN_ANOMALY": 266.2391,
    "EPHEMERIS_TYPE": 0,
    "CLASSIFICATION_TYPE": "U",
    "NORAD_CAT_ID": 51745,
    "ELEMENT_SET_NO": 999,
    "REV_AT_EPOCH": 20563,
    "BSTAR": 9.457100000000001e-05,
    "MEAN_MOTION_DOT": 1.218e-05,
    "MEAN_MOTION_DDOT": 0.0,
    "TLE_LINE1": "1 51745U 22016AH  25314.93151686  .00001218  00000+0  94571-4 0  9998",
    "TLE_LINE2": "2 51745  53.2162 132.2464 0001422  93.8764 266.2391 15.08842327205636",
    "COMMENT": "Grouped by shell and plane from TLE"
  },
  {
    "OBJECT_NAME": "STARLINK-3446",
    "OBJECT_ID": "22016AK",
    "EPOCH": "2025-11-10T22:12:10.427616",
    "MEAN_MOTION": 15.08853822,
    "ECCENTRICITY": 0.0001232,
    "INCLINATION": 53.2168,
    "RA_OF_ASC_NODE": 132.3251,
    "ARG_OF_PERICENTER": 80.7864,
    "MEAN_ANOMALY": 279.3268,
    "EPHEMERIS_TYPE": 0,
    "CLASSIFICATION_TYPE": "U",
    "NORAD_CAT_ID": 51747,
    "ELEMENT_SET_NO": 999,
    "REV_AT_EPOCH": 20563,
    "BSTAR": 2.6257999999999998e-05,
    "MEAN_MOTION_DOT": 1.3e-06,
    "MEAN_MOTION_DDOT": 0.0,
    "TLE_LINE1": "1 51747U 22016AK  25314.92512069  .00000130  00000+0  26258-4 0  9994",
    "TLE_LINE2": "2 51747  53.2168 132.3251 0001232  80.7864 279.3268 15.08853822205634",
    "COMMENT": "Grouped by shell and plane from TLE"
  },
  {
    "OBJECT_NAME": "STARLINK-3451",
    "OBJECT_ID": "22016AM",
    "EPOCH": "2025-11-10T21:39:01.319040",
    "MEAN_MOTION": 15.08843229,
    "ECCENTRICITY": 0.0001442,
    "INCLINATION": 53.2157,
    "RA_OF_ASC_NODE": 132.5611,
    "ARG_OF_PERICENTER": 87.0606,
    "MEAN_ANOMALY": 273.0552,
    "EPHEMERIS_TYPE": 0,
    "CLASSIFICATION_TYPE": "U",
    "NORAD_CAT_ID": 51749,
    "ELEMENT_SET_NO": 999,
    "REV_AT_EPOCH": 20562,
    "BSTAR": 5.4428e-05,
    "MEAN_MOTION_DOT": 5.78e-06,
    "MEAN_MOTION_DDOT": 0.0,
    "TLE_LINE1": "1 51749U 22016AM  25314.90209860  .00000578  00000+0  54428-4 0  9992",
    "TLE_LINE2": "2 51749  53.2157 132.5611 0001442  87.0606 273.0552 15.08843229205629",
    "COMMENT": "Grouped by shell and plane from TLE"
  },
  {
    "OBJECT_NAME": "STARLINK-4362",
    "OBJECT_ID": "22077A",
    "EPOCH": "2025-11-11T01:38:15.858240",
    "MEAN_MOTION": 15.01264051,
    "ECCENTRICITY": 0.000298,
    "INCLINATION": 97.602,
    "RA_OF_ASC_NODE": 134.0748,
    "ARG_OF_PERICENTER": 192.4509,
    "MEAN_ANOMALY": 167.6642,
    "EPHEMERIS_TYPE": 0,
    "CLASSIFICATION_TYPE": "U",
    "NORAD_CAT_ID": 53043,
    "ELEMENT_SET_NO": 999,
    "REV_AT_EPOCH": 18312,
    "BSTAR": 3.3053000000000004e-05,
    "MEAN_MOTION_DOT": 3.66e-06,
    "MEAN_MOTION_DDOT": 0.0,
    "TLE_LINE1": "1 53043U 22077A   25315.06823910  .00000366  00000+0  33053-4 0  9990",
    "TLE_LINE2": "2 53043  97.6020 134.0748 0002980 192.4509 167.6642 15.01264051183129",
    "COMMENT": "Grouped by shell and plane from TLE"
  },
  {
    "OBJECT_NAME": "STARLINK-4349",
    "OBJECT_ID": "22077B",
    "EPOCH": "2025-11-11T08:00:03.000384",
    "MEAN_MOTION": 15.08675041,
    "ECCENTRICITY": 0.0002726,
    "INCLINATION": 97.6035,
    "RA_OF_ASC_NODE": 134.387,
    "ARG_OF_PERICENTER": 70.4146,
    "MEAN_ANOMALY": 75.596,
    "EPHEMERIS_TYPE": 0,
    "CLASSIFICATION_TYPE": "U",
    "NORAD_CAT_ID": 53044,
    "ELEMENT_SET_NO": 999,
    "REV_AT_EPOCH": 579,
    "BSTAR": 0.0048099,
    "MEAN_MOTION_DOT": 0.00076059,
    "MEAN_MOTION_DDOT": 0.0,
    "TLE_LINE1": "1 53044U 22077B   25315.33336806  .00076059  00000+0  48099-2 0  9990",
    "TLE_LINE2": "2 53044  97.6035 134.3870 0002726  70.4146  75.5960 15.08675041  5793",
    "COMMENT": "Grouped by shell and plane from TLE"
  },
  {
    "OBJECT_NAME": "STARLINK-4350",
    "OBJECT_ID": "22077C",
    "EPOCH": "2025-11-11T05:40:32.438784",
    "MEAN_MOTION": 15.0568129,
    "ECCENTRICITY": 0.0001697,
    "INCLINATION": 97.6029,
    "RA_OF_ASC_NODE": 134.457,
    "ARG_OF_PERICENTER": 94.5367,
    "MEAN_ANOMALY": 265.6054,
    "EPHEMERIS_TYPE": 0,
    "CLASSIFICATION_TYPE": "U",
    "NORAD_CAT_ID": 53045,
    "ELEMENT_SET_NO": 999,
    "REV_AT_EPOCH": 18316,
    "BSTAR": 0.00031306,
    "MEAN_MOTION_DOT": 4.463e-05,
    "MEAN_MOTION_DDOT": 0.0,
    "TLE_LINE1": "1 53045U 22077C   25315.23648656  .00004463  00000+0  31306-3 0  9993",
    "TLE_LINE2": "2 53045  97.6029 134.4570 0001697  94.5367 265.6054 15.05681290183167",
    "COMMENT": "Grouped by shell and plane from TLE"
  },
  {
    "OBJECT_NAME": "STARLINK-4331",
    "OBJECT_ID": "22077D",
    "EPOCH": "2025-11-11T01:29:23.338752",
    "MEAN_MOTION": 15.05653116,
    "ECCENTRICITY": 0.0001516,
    "INCLINATION": 97.6016,
    "RA_OF_ASC_NODE": 134.3815,
    "ARG_OF_PERICENTER": 82.3477,
    "MEAN_ANOMALY": 277.7922,
    "EPHEMERIS_TYPE": 0,
    "CLASSIFICATION_TYPE": "U",
    "NORAD_CAT_ID": 53046,
    "ELEMENT_SET_NO": 999,
    "REV_AT_EPOCH": 18314,
    "BSTAR": 1.0341000000000002e-06,
    "MEAN_MOTION_DOT": -4.6e-07,
    "MEAN_MOTION_DDOT": 0.0,
    "TLE_LINE1": "1 53046U 22077D   25315.06207568 -.00000046  00000+0  10341-5 0  9990",
    "TLE_LINE2": "2 53046  97.6016 134.3815 0001516  82.3477 277.7922 15.05653116183144",
    "COMMENT": "Grouped by shell and plane from TLE"
  },
  {
    "OBJECT_NAME": "STARLINK-4352",
    "OBJECT_ID": "22077E",
    "EPOCH": "2025-11-11T05:57:13.959936",
    "MEAN_MOTION": 15.01263337,
    "ECCENTRICITY": 0.0002255,
    "INCLINATION": 97.6031,
    "RA_OF_ASC_NODE": 134.294,
    "ARG_OF_PERICENTER": 66.5819,
    "MEAN_ANOMALY": 293.5643,
    "EPHEMERIS_TYPE": 0,
    "CLASSIFICATION_TYPE": "U",
    "NORAD_CAT_ID": 53047,
    "ELEMENT_SET_NO": 999,
    "REV_AT_EPOCH": 18315,
    "BSTAR": 7.5728e-05,
    "MEAN_MOTION_DOT": 9.15e-06,
    "MEAN_MOTION_DDOT": 0.0,
    "TLE_LINE1": "1 53047U 22077E   25315.24807824  .00000915  00000+0  75728-4 0  9995",
    "TLE_LINE2": "2 53047  97.6031 134.2940 0002255  66.5819 293.5643 15.01263337183150",
    "COMMENT": "Grouped by shell and plane from TLE"
  },
  {
    "OBJECT_NAME": "STARLINK-4355",
    "OBJECT_ID": "22077F",
    "EPOCH": "2025-11-11T05:20:40.424640",
    "MEAN_MOTION": 15.0564986,
    "ECCENTRICITY": 0.0001905,
    "INCLINATION": 97.6034,
    "RA_OF_ASC_NODE": 134.4717,
    "ARG_OF_PERICENTER": 79.7046,
    "MEAN_ANOMALY": 280.4395,
    "EPHEMERIS_TYPE": 0,
    "CLASSIFICATION_TYPE": "U",
    "NORAD_CAT_ID": 53048,
    "ELEMENT_SET_NO": 999,
    "REV_AT_EPOCH": 18315,
    "BSTAR": 8.6486e-05,
    "MEAN_MOTION_DOT": 1.187e-05,
    "MEAN_MOTION_DDOT": 0.0,
    "TLE_LINE1": "1 53048U 22077F   25315.22269010  .00001187  00000+0  86486-4 0  9998",
    "TLE_LINE2": "2 53048  97.6034 134.4717 0001905  79.7046 280.4395 15.05649860183159",
    "COMMENT": "Grouped by shell and plane from TLE"
  }
]